{"type": "FeatureCollection", "features": [ {"type": "Feature", "properties": {"norad_id": 34375, "name": "IRIDIUM 33 DEB", "group": "iridium-33-debris", "lat": 54.89371001827354, "lon": -1.8096036539675167, "alt_km": 753.1074661551138, "timestamp": "2025-12-11T07:02:24.115381+00:00", "meta": {"OBJECT_NAME": "IRIDIUM 33 DEB", "OBJECT_ID": "1997-051FT", "EPOCH": "2025-12-10T07:35:27.786048", "MEAN_MOTION": 14.17985501, "ECCENTRICITY": 0.0103124, "INCLINATION": 86.4328, "RA_OF_ASC_NODE": 183.6751, "ARG_OF_PERICENTER": 134.3251, "MEAN_ANOMALY": 46.2443, "EPHEMERIS_TYPE": 0, "CLASSIFICATION_TYPE": "U", "NORAD_CAT_ID": 34375, "ELEMENT_SET_NO": 999, "REV_AT_EPOCH": 86677, "BSTAR": 0.00060254, "MEAN_MOTION_DOT": 1.319e-05, "MEAN_MOTION_DDOT": 0}, "tle": {"line1": "1 34375U 97051FT  25344.31629382  .00001319  00000+0  60254-3 0  9999", "line2": "2 34375  86.4328 183.6751 0103124 134.3251  46.2443 14.17985501866774"}}, "geometry": {"type": "Point", "coordinates": [-1.8096036539675167, 54.89371001827354]}}, {"type": "Feature", "properties": {"norad_id": 34376, "name": "IRIDIUM 33 DEB", "group": "iridium-33-debris", "lat": -84.53154832979489, "lon": -130.26720215009237, "alt_km": 693.9082035107922, "timestamp": "2025-12-11T07:02:24.115391+00:00", "meta": {"OBJECT_NAME": "IRIDIUM 33 DEB", "OBJECT_ID": "1997-051FU", "EPOCH": "2025-12-10T19:58:36.016320", "MEAN_MOTION": 14.6252204, "ECCENTRICITY": 0.00269651, "INCLINATION": 86.2989, "RA_OF_ASC_NODE": 7.3971, "ARG_OF_PERICENTER": 173.0345, "MEAN_ANOMALY": 187.1247, "EPHEMERIS_TYPE": 0, "CLASSIFICATION_TYPE": "U", "NORAD_CAT_ID": 34376, "ELEMENT_SET_NO": 999, "REV_AT_EPOCH": 87979, "BSTAR": 0.0021755564, "MEAN_MOTION_DOT": 0.00011118, "MEAN_MOTION_DDOT": 0}, "tle": {"line1": "1 34376U 97051FU  25344.83236130  .00011118  00000+0  21756-2 0  9993", "line2": "2 34376  86.2989   7.3971 0026965 173.0345 187.1247 14.62522040879791"}}, "geometry": {"type": "Point", "coordinates": [-130.26720215009237, -84.53154832979489]}}, {"type": "Feature", "properties": {"norad_id": 34486, "name": "IRIDIUM 33 DEB", "group": "iridium-33-debris", "lat": -50.361853072889865, "lon": 8.32592466530566, "alt_km": 596.4406766083703, "timestamp": "2025-12-11T07:02:24.115403+00:00", "meta": {"OBJECT_NAME": "IRIDIUM 33 DEB", "OBJECT_ID": "1997-051GB", "EPOCH": "2025-12-10T12:34:52.076640", "MEAN_MOTION": 14.95631974, "ECCENTRICITY": 0.00134896, "INCLINATION": 86.3938, "RA_OF_ASC_NODE": 13.0469, "ARG_OF_PERICENTER": 119.9859, "MEAN_ANOMALY": 11.1663, "EPHEMERIS_TYPE": 0, "CLASSIFICATION_TYPE": "U", "NORAD_CAT_ID": 34486, "ELEMENT_SET_NO": 999, "REV_AT_EPOCH": 88953, "BSTAR": 0.0031930379, "MEAN_MOTION_DOT": 0.00035691, "MEAN_MOTION_DDOT": 0}, "tle": {"line1": "1 34486U 97051GB  25344.52421385  .00035691  00000+0  31930-2 0  9996", "line2": "2 34486  86.3938  13.0469 0013489 119.9859  11.1663 14.95631974889534"}}, "geometry": {"type": "Point", "coordinates": [8.32592466530566, -50.361853072889865]}}, {"type": "Feature", "properties": {"norad_id": 34487, "name": "IRIDIUM 33 DEB", "group": "iridium-33-debris", "lat": -58.38749908762955, "lon": -161.03653182995345, "alt_km": 761.3423526205861, "timestamp": "2025-12-11T07:02:24.115413+00:00", "meta": {"OBJECT_NAME": "IRIDIUM 33 DEB", "OBJECT_ID": "1997-051GC", "EPOCH": "2025-12-10T01:47:16.386144", "MEAN_MOTION": 14.4321077, "ECCENTRICITY": 0.00325626, "INCLINATION": 86.3436, "RA_OF_ASC_NODE": 13.5248, "ARG_OF_PERICENTER": 136.7627, "MEAN_ANOMALY": 252.8644, "EPHEMERIS_TYPE": 0, "CLASSIFICATION_TYPE": "U", "NORAD_CAT_ID": 34487, "ELEMENT_SET_NO": 999, "REV_AT_EPOCH": 88210, "BSTAR": 0.00027422216, "MEAN_MOTION_DOT": 9.48e-06, "MEAN_MOTION_DDOT": 0}, "tle": {"line1": "1 34487U 97051GC  25344.07449521  .00000948  00000+0  27422-3 0  9998", "line2": "2 34487  86.3436  13.5248 0032562 136.7627 252.8644 14.43210770882100"}}, "geometry": {"type": "Point", "coordinates": [-161.03653182995345, -58.38749908762955]}}, {"type": "Feature", "properties": {"norad_id": 34488, "name": "IRIDIUM 33 DEB", "group": "iridium-33-debris", "lat": 60.31873215536357, "lon": 120.05544492159703, "alt_km": 469.85966974651274, "timestamp": "2025-12-11T07:02:24.115424+00:00", "meta": {"OBJECT_NAME": "IRIDIUM 33 DEB", "OBJECT_ID": "1997-051GD", "EPOCH": "2025-12-10T14:48:36.945792", "MEAN_MOTION": 15.28578771, "ECCENTRICITY": 0.0013801, "INCLINATION": 86.3253, "RA_OF_ASC_NODE": 306.8644, "ARG_OF_PERICENTER": 55.1759, "MEAN_ANOMALY": 305.0785, "EPHEMERIS_TYPE": 0, "CLASSIFICATION_TYPE": "U", "NORAD_CAT_ID": 34488, "ELEMENT_SET_NO": 999, "REV_AT_EPOCH": 89207, "BSTAR": 0.0066252, "MEAN_MOTION_DOT": 0.00188937, "MEAN_MOTION_DDOT": 0}, "tle": {"line1": "1 34488U 97051GD  25344.61709428  .00188937  00000+0  66252-2 0  9992", "line2": "2 34488  86.3253 306.8644 0013801  55.1759 305.0785 15.28578771892077"}}, "geometry": {"type": "Point", "coordinates": [120.05544492159703, 60.31873215536357]}}, {"type": "Feature", "properties": {"norad_id": 34492, "name": "IRIDIUM 33 DEB", "group": "iridium-33-debris", "lat": 58.90367906943457, "lon": -18.91802810353593, "alt_km": 936.2369508287284, "timestamp": "2025-12-11T07:02:24.115434+00:00", "meta": {"OBJECT_NAME": "IRIDIUM 33 DEB", "OBJECT_ID": "1997-051GH", "EPOCH": "2025-12-10T11:09:51.703200", "MEAN_MOTION": 14.25634536, "ECCENTRICITY": 0.01891979, "INCLINATION": 86.473, "RA_OF_ASC_NODE": 335.5473, "ARG_OF_PERICENTER": 245.5701, "MEAN_ANOMALY": 245.7256, "EPHEMERIS_TYPE": 0, "CLASSIFICATION_TYPE": "U", "NORAD_CAT_ID": 34492, "ELEMENT_SET_NO": 999, "REV_AT_EPOCH": 85026, "BSTAR": 0.0074682378, "MEAN_MOTION_DOT": 0.00021406, "MEAN_MOTION_DDOT": 0}, "tle": {"line1": "1 34492U 97051GH  25344.46518175  .00021406  00000+0  74682-2 0  9990", "line2": "2 34492  86.4730 335.5473 0189197 245.5701 245.7256 14.25634536850262"}}, "geometry": {"type": "Point", "coordinates": [-18.91802810353593, 58.90367906943457]}}, {"type": "Feature", "properties": {"norad_id": 34497, "name": "IRIDIUM 33 DEB", "group": "iridium-33-debris", "lat": -72.17986913328663, "lon": 41.33609533154285, "alt_km": 776.3264471711982, "timestamp": "2025-12-11T07:02:24.115444+00:00", "meta": {"OBJECT_NAME": "IRIDIUM 33 DEB", "OBJECT_ID": "1997-051GN", "EPOCH": "2025-12-10T04:35:23.086752", "MEAN_MOTION": 14.2744131, "ECCENTRICITY": 0.00790645, "INCLINATION": 86.2779, "RA_OF_ASC_NODE": 53.4903, "ARG_OF_PERICENTER": 347.8917, "MEAN_ANOMALY": 40.4515, "EPHEMERIS_TYPE": 0, "CLASSIFICATION_TYPE": "U", "NORAD_CAT_ID": 34497, "ELEMENT_SET_NO": 999, "REV_AT_EPOCH": 86847, "BSTAR": 0.00082191095, "MEAN_MOTION_DOT": 2.102e-05, "MEAN_MOTION_DDOT": 0}, "tle": {"line1": "1 34497U 97051GN  25344.19123943  .00002102  00000+0  82191-3 0  9997", "line2": "2 34497  86.2779  53.4903 0079064 347.8917  40.4515 14.27441310868476"}}, "geometry": {"type": "Point", "coordinates": [41.33609533154285, -72.17986913328663]}}, {"type": "Feature", "properties": {"norad_id": 34508, "name": "IRIDIUM 33 DEB", "group": "iridium-33-debris", "lat": 28.691771490004005, "lon": 105.24715699023974, "alt_km": 802.7289602512101, "timestamp": "2025-12-11T07:02:24.115454+00:00", "meta": {"OBJECT_NAME": "IRIDIUM 33 DEB", "OBJECT_ID": "1997-051GZ", "EPOCH": "2025-12-10T17:32:54.116160", "MEAN_MOTION": 14.38397935, "ECCENTRICITY": 0.00659335, "INCLINATION": 86.3699, "RA_OF_ASC_NODE": 103.4944, "ARG_OF_PERICENTER": 179.5096, "MEAN_ANOMALY": 180.6179, "EPHEMERIS_TYPE": 0, "CLASSIFICATION_TYPE": "U", "NORAD_CAT_ID": 34508, "ELEMENT_SET_NO": 999, "REV_AT_EPOCH": 87280, "BSTAR": 0.0024146559, "MEAN_MOTION_DOT": 7.57e-05, "MEAN_MOTION_DDOT": 0}, "tle": {"line1": "1 34508U 97051GZ  25344.73118190  .00007570  00000+0  24147-2 0  9998", "line2": "2 34508  86.3699 103.4944 0065933 179.5096 180.6179 14.38397935872800"}}, "geometry": {"type": "Point", "coordinates": [105.24715699023974, 28.691771490004005]}}, {"type": "Feature", "properties": {"norad_id": 34521, "name": "IRIDIUM 33 DEB", "group": "iridium-33-debris", "lat": 76.81781558404265, "lon": 46.86606978262701, "alt_km": 676.0524103033158, "timestamp": "2025-12-11T07:02:24.115465+00:00", "meta": {"OBJECT_NAME": "IRIDIUM 33 DEB", "OBJECT_ID": "1997-051HN", "EPOCH": "2025-12-10T20:50:27.765888", "MEAN_MOTION": 14.63339894, "ECCENTRICITY": 0.00013548, "INCLINATION": 86.38, "RA_OF_ASC_NODE": 31.3716, "ARG_OF_PERICENTER": 226.1089, "MEAN_ANOMALY": 134.0012, "EPHEMERIS_TYPE": 0, "CLASSIFICATION_TYPE": "U", "NORAD_CAT_ID": 34521, "ELEMENT_SET_NO": 999, "REV_AT_EPOCH": 88445, "BSTAR": 0.0013533908, "MEAN_MOTION_DOT": 7.01e-05, "MEAN_MOTION_DDOT": 0}, "tle": {"line1": "1 34521U 97051HN  25344.86837692  .00007010  00000+0  13534-2 0  9999", "line2": "2 34521  86.3800  31.3716 0001354 226.1089 134.0012 14.63339894884454"}}, "geometry": {"type": "Point", "coordinates": [46.86606978262701, 76.81781558404265]}}, {"type": "Feature", "properties": {"norad_id": 34525, "name": "IRIDIUM 33 DEB", "group": "iridium-33-debris", "lat": 2.533060176495291, "lon": 47.621821047121266, "alt_km": 752.1012418944483, "timestamp": "2025-12-11T07:02:24.115475+00:00", "meta": {"OBJECT_NAME": "IRIDIUM 33 DEB", "OBJECT_ID": "1997-051HS", "EPOCH": "2025-12-10T15:05:26.627424", "MEAN_MOTION": 14.42897814, "ECCENTRICITY": 0.0006702, "INCLINATION": 86.3728, "RA_OF_ASC_NODE": 47.7446, "ARG_OF_PERICENTER": 100.2162, "MEAN_ANOMALY": 52.7315, "EPHEMERIS_TYPE": 0, "CLASSIFICATION_TYPE": "U", "NORAD_CAT_ID": 34525, "ELEMENT_SET_NO": 999, "REV_AT_EPOCH": 88057, "BSTAR": 0.00056976, "MEAN_MOTION_DOT": 1.923e-05, "MEAN_MOTION_DDOT": 0}, "tle": {"line1": "1 34525U 97051HS  25344.62878041  .00001923  00000+0  56976-3 0  9995", "line2": "2 34525  86.3728  47.7446 0006702 100.2162  52.7315 14.42897814880573"}}, "geometry": {"type": "Point", "coordinates": [47.621821047121266, 2.533060176495291]}}]}